{
  "type": "FeatureCollection",
  "features": [
    {
      "type": "Feature",
      "properties": {
        "norad_id": 66496,
        "name": "STARLINK-35909",
        "group": "last-30-days",
        "lat": -41.2367293466553,
        "lon": 17.215956482861426,
        "alt_km": 417.3613945124707,
        "timestamp": "2025-12-12T09:49:07.480585+00:00",
        "meta_object_name": "STARLINK-35909",
        "meta_object_id": "2025-263M",
        "meta_epoch": "2025-12-12T00:00:04.999104",
        "meta_mean_motion": 15.50511169,
        "meta_eccentricity": 0.0001629,
        "meta_inclination": 43.0003,
        "meta_ra_of_asc_node": 129.4454,
        "meta_arg_of_pericenter": 276.5943,
        "meta_mean_anomaly": 212.5392,
        "meta_ephemeris_type": 0,
        "meta_classification_type": "U",
        "meta_norad_cat_id": 66496,
        "meta_element_set_no": 999,
        "meta_rev_at_epoch": 551,
        "meta_bstar": 0.0011925,
        "meta_mean_motion_dot": 0.00070077,
        "meta_mean_motion_ddot": 0,
        "tle_line1": "1 66496U 25263M   25346.00005786  .00070077  00000+0  11925-2 0  9995",
        "tle_line2": "2 66496  43.0003 129.4454 0001629 276.5943 212.5392 15.50511169  5515"
      },
      "geometry": {
        "type": "Point",
        "coordinates": [
          17.215956482861426,
          -41.2367293466553
        ]
      }
    },
    {
      "type": "Feature",
      "properties": {
        "norad_id": 66497,
        "name": "STARLINK-35899",
        "group": "last-30-days",
        "lat": -41.654831996822274,
        "lon": 19.716586460874385,
        "alt_km": 417.3547285926097,
        "timestamp": "2025-12-12T09:49:07.480596+00:00",
        "meta_object_name": "STARLINK-35899",
        "meta_object_id": "2025-263N",
        "meta_epoch": "2025-12-12T00:00:04.999104",
        "meta_mean_motion": 15.50504116,
        "meta_eccentricity": 0.0001647,
        "meta_inclination": 43.0004,
        "meta_ra_of_asc_node": 129.4407,
        "meta_arg_of_pericenter": 278.3763,
        "meta_mean_anomaly": 212.6859,
        "meta_ephemeris_type": 0,
        "meta_classification_type": "U",
        "meta_norad_cat_id": 66497,
        "meta_element_set_no": 999,
        "meta_rev_at_epoch": 551,
        "meta_bstar": 0.0014364,
        "meta_mean_motion_dot": 0.00084614,
        "meta_mean_motion_ddot": 0,
        "tle_line1": "1 66497U 25263N   25346.00005786  .00084614  00000+0  14364-2 0  9998",
        "tle_line2": "2 66497  43.0004 129.4407 0001647 278.3763 212.6859 15.50504116  5518"
      },
      "geometry": {
        "type": "Point",
        "coordinates": [
          19.716586460874385,
          -41.654831996822274
        ]
      }
    },
    {
      "type": "Feature",
      "properties": {
        "norad_id": 66498,
        "name": "STARLINK-35907",
        "group": "last-30-days",
        "lat": -3.4203252813186285,
        "lon": -49.101236893918426,
        "alt_km": 443.88772133797374,
        "timestamp": "2025-12-12T09:49:07.480608+00:00",
        "meta_object_name": "STARLINK-35907",
        "meta_object_id": "2025-263P",
        "meta_epoch": "2025-12-12T04:00:01.998720",
        "meta_mean_motion": 15.40691025,
        "meta_eccentricity": 0.0001454,
        "meta_inclination": 43.0005,
        "meta_ra_of_asc_node": 128.6188,
        "meta_arg_of_pericenter": 253.7003,
        "meta_mean_anomaly": 25.0392,
        "meta_ephemeris_type": 0,
        "meta_classification_type": "U",
        "meta_norad_cat_id": 66498,
        "meta_element_set_no": 999,
        "meta_rev_at_epoch": 554,
        "meta_bstar": 0.00091932,
        "meta_mean_motion_dot": 0.0003828,
        "meta_mean_motion_ddot": 0,
        "tle_line1": "1 66498U 25263P   25346.16668980  .00038280  00000+0  91932-3 0  9992",
        "tle_line2": "2 66498  43.0005 128.6188 0001454 253.7003  25.0392 15.40691025  5543"
      },
      "geometry": {
        "type": "Point",
        "coordinates": [
          -49.101236893918426,
          -3.4203252813186285
        ]
      }
    },
    {
      "type": "Feature",
      "properties": {
        "norad_id": 66499,
        "name": "STARLINK-35816",
        "group": "last-30-days",
        "lat": -27.38330965555105,
        "lon": -19.09969985580173,
        "alt_km": 445.6021190905485,
        "timestamp": "2025-12-12T09:49:07.480619+00:00",
        "meta_object_name": "STARLINK-35816",
        "meta_object_id": "2025-263Q",
        "meta_epoch": "2025-12-12T04:00:01.998720",
        "meta_mean_motion": 15.41241855,
        "meta_eccentricity": 0.0001354,
        "meta_inclination": 43.0007,
        "meta_ra_of_asc_node": 128.5292,
        "meta_arg_of_pericenter": 266.519,
        "meta_mean_anomaly": 49.353,
        "meta_ephemeris_type": 0,
        "meta_classification_type": "U",
        "meta_norad_cat_id": 66499,
        "meta_element_set_no": 999,
        "meta_rev_at_epoch": 554,
        "meta_bstar": -0.020658,
        "meta_mean_motion_dot": -0.00804318,
        "meta_mean_motion_ddot": 0,
        "tle_line1": "1 66499U 25263Q   25346.16668980 -.00804318  00000+0 -20658-1 0  9993",
        "tle_line2": "2 66499  43.0007 128.5292 0001354 266.5190  49.3530 15.41241855  5545"
      },
      "geometry": {
        "type": "Point",
        "coordinates": [
          -19.09969985580173,
          -27.38330965555105
        ]
      }
    },
    {
      "type": "Feature",
      "properties": {
        "norad_id": 66500,
        "name": "STARLINK-35894",
        "group": "last-30-days",
        "lat": 13.354182000445856,
        "lon": -67.47470535783788,
        "alt_km": 442.5673157754709,
        "timestamp": "2025-12-12T09:49:07.480630+00:00",
        "meta_object_name": "STARLINK-35894",
        "meta_object_id": "2025-263R",
        "meta_epoch": "2025-12-12T04:00:01.998720",
        "meta_mean_motion": 15.40646094,
        "meta_eccentricity": 0.0001956,
        "meta_inclination": 43.0008,
        "meta_ra_of_asc_node": 128.6808,
        "meta_arg_of_pericenter": 273.5533,
        "meta_mean_anomaly": 340.4117,
        "meta_ephemeris_type": 0,
        "meta_classification_type": "U",
        "meta_norad_cat_id": 66500,
        "meta_element_set_no": 999,
        "meta_rev_at_epoch": 554,
        "meta_bstar": 0.0011649,
        "meta_mean_motion_dot": 0.00048582,
        "meta_mean_motion_ddot": 0,
        "tle_line1": "1 66500U 25263R   25346.16668980  .00048582  00000+0  11649-2 0  9998",
        "tle_line2": "2 66500  43.0008 128.6808 0001956 273.5533 340.4117 15.40646094  5549"
      },
      "geometry": {
        "type": "Point",
        "coordinates": [
          -67.47470535783788,
          13.354182000445856
        ]
      }
    },
    {
      "type": "Feature",
      "properties": {
        "norad_id": 66501,
        "name": "STARLINK-35897",
        "group": "last-30-days",
        "lat": -37.911436808387066,
        "lon": 3.770504918244201,
        "alt_km": 438.3357456143003,
        "timestamp": "2025-12-12T09:49:07.480640+00:00",
        "meta_object_name": "STARLINK-35897",
        "meta_object_id": "2025-263S",
        "meta_epoch": "2025-12-12T04:00:01.998720",
        "meta_mean_motion": 15.44513519,
        "meta_eccentricity": 0.000145,
        "meta_inclination": 43.0006,
        "meta_ra_of_asc_node": 128.4821,
        "meta_arg_of_pericenter": 266.0638,
        "meta_mean_anomaly": 69.1674,
        "meta_ephemeris_type": 0,
        "meta_classification_type": "U",
        "meta_norad_cat_id": 66501,
        "meta_element_set_no": 999,
        "meta_rev_at_epoch": 554,
        "meta_bstar": -0.048984,
        "meta_mean_motion_dot": -0.02065838,
        "meta_mean_motion_ddot": 0,
        "tle_line1": "1 66501U 25263S   25346.16668980 -.02065838  00000+0 -48984-1 0  9997",
        "tle_line2": "2 66501  43.0006 128.4821 0001450 266.0638  69.1674 15.44513519  5545"
      },
      "geometry": {
        "type": "Point",
        "coordinates": [
          3.770504918244201,
          -37.911436808387066
        ]
      }
    },
    {
      "type": "Feature",
      "properties": {
        "norad_id": 66502,
        "name": "STARLINK-35922",
        "group": "last-30-days",
        "lat": -42.97748773214355,
        "lon": 37.75083385358414,
        "alt_km": 417.30187388577633,
        "timestamp": "2025-12-12T09:49:07.480650+00:00",
        "meta_object_name": "STARLINK-35922",
        "meta_object_id": "2025-263T",
        "meta_epoch": "2025-12-12T00:00:04.999104",
        "meta_mean_motion": 15.50508444,
        "meta_eccentricity": 0.0001713,
        "meta_inclination": 43.0003,
        "meta_ra_of_asc_node": 129.4062,
        "meta_arg_of_pericenter": 276.5913,
        "meta_mean_anomaly": 227.8901,
        "meta_ephemeris_type": 0,
        "meta_classification_type": "U",
        "meta_norad_cat_id": 66502,
        "meta_element_set_no": 999,
        "meta_rev_at_epoch": 551,
        "meta_bstar": 0.0011849,
        "meta_mean_motion_dot": 0.00069615,
        "meta_mean_motion_ddot": 0,
        "tle_line1": "1 66502U 25263T   25346.00005786  .00069615  00000+0  11849-2 0  9994",
        "tle_line2": "2 66502  43.0003 129.4062 0001713 276.5913 227.8901 15.50508444  5516"
      },
      "geometry": {
        "type": "Point",
        "coordinates": [
          37.75083385358414,
          -42.97748773214355
        ]
      }
    }
  ]
}